{"type": "FeatureCollection", "features": [ {"type": "Feature", "properties": {"norad_id": 35210, "name": "FENGYUN 1C DEB", "group": "fengyun-1c-debris", "lat": -78.01018219566183, "lon": 33.41829119237592, "alt_km": 754.4693527530444, "timestamp": "2025-12-06T22:38:43.015886+00:00", "meta": {"OBJECT_NAME": "FENGYUN 1C DEB", "OBJECT_ID": "1999-025DPS", "EPOCH": "2025-12-05T23:50:18.341376", "MEAN_MOTION": 14.33492757, "ECCENTRICITY": 0.00493395, "INCLINATION": 99.0965, "RA_OF_ASC_NODE": 343.4463, "ARG_OF_PERICENTER": 258.927, "MEAN_ANOMALY": 157.4301, "EPHEMERIS_TYPE": 0, "CLASSIFICATION_TYPE": "U", "NORAD_CAT_ID": 35210, "ELEMENT_SET_NO": 999, "REV_AT_EPOCH": 90026, "BSTAR": 0.004026418, "MEAN_MOTION_DOT": 0.0001125, "MEAN_MOTION_DDOT": 0}, "tle": {"line1": "1 35210U 99025DPS 25339.99326784  .00011250  00000+0  40264-2 0  9992", "line2": "2 35210  99.0965 343.4463 0049339 258.9270 157.4301 14.33492757900262"}}, "geometry": {"type": "Point", "coordinates": [33.41829119237592, -78.01018219566183]}}, {"type": "Feature", "properties": {"norad_id": 35217, "name": "FENGYUN 1C DEB", "group": "fengyun-1c-debris", "lat": -66.7731320836413, "lon": -75.73684664308597, "alt_km": 838.7573002891304, "timestamp": "2025-12-06T22:38:43.015896+00:00", "meta": {"OBJECT_NAME": "FENGYUN 1C DEB", "OBJECT_ID": "1999-025DPZ", "EPOCH": "2025-12-05T23:58:33.115296", "MEAN_MOTION": 13.5745023, "ECCENTRICITY": 0.03033776, "INCLINATION": 101.8756, "RA_OF_ASC_NODE": 253.7635, "ARG_OF_PERICENTER": 311.644, "MEAN_ANOMALY": 45.907, "EPHEMERIS_TYPE": 0, "CLASSIFICATION_TYPE": "U", "NORAD_CAT_ID": 35217, "ELEMENT_SET_NO": 999, "REV_AT_EPOCH": 61128, "BSTAR": 0.0051438041, "MEAN_MOTION_DOT": 4.909e-05, "MEAN_MOTION_DDOT": 0}, "tle": {"line1": "1 35217U 99025DPZ 25339.99899439  .00004909  00000+0  51438-2 0  9999", "line2": "2 35217 101.8756 253.7635 0303377 311.6440  45.9070 13.57450230611284"}}, "geometry": {"type": "Point", "coordinates": [-75.73684664308597, -66.7731320836413]}}, {"type": "Feature", "properties": {"norad_id": 35220, "name": "FENGYUN 1C DEB", "group": "fengyun-1c-debris", "lat": -15.093118532222631, "lon": -131.62173424483814, "alt_km": 841.393313657325, "timestamp": "2025-12-06T22:38:43.015906+00:00", "meta": {"OBJECT_NAME": "FENGYUN 1C DEB", "OBJECT_ID": "1999-025DQC", "EPOCH": "2025-12-03T04:15:21.001824", "MEAN_MOTION": 14.22451281, "ECCENTRICITY": 0.0043073, "INCLINATION": 99.0282, "RA_OF_ASC_NODE": 46.9795, "ARG_OF_PERICENTER": 335.8269, "MEAN_ANOMALY": 24.0886, "EPHEMERIS_TYPE": 0, "CLASSIFICATION_TYPE": "U", "NORAD_CAT_ID": 35220, "ELEMENT_SET_NO": 999, "REV_AT_EPOCH": 63047, "BSTAR": 0.0020517631, "MEAN_MOTION_DOT": 4.572e-05, "MEAN_MOTION_DDOT": 0}, "tle": {"line1": "1 35220U 99025DQC 25337.17732641  .00004572  00000+0  20518-2 0  9993", "line2": "2 35220  99.0282  46.9795 0043073 335.8269  24.0886 14.22451281630475"}}, "geometry": {"type": "Point", "coordinates": [-131.62173424483814, -15.093118532222631]}}, {"type": "Feature", "properties": {"norad_id": 35223, "name": "FENGYUN 1C DEB", "group": "fengyun-1c-debris", "lat": -18.465635237837883, "lon": 139.6417187020307, "alt_km": 681.5609685749587, "timestamp": "2025-12-06T22:38:43.015927+00:00", "meta": {"OBJECT_NAME": "FENGYUN 1C DEB", "OBJECT_ID": "1999-025DQF", "EPOCH": "2025-12-05T16:43:00.793344", "MEAN_MOTION": 14.88764155, "ECCENTRICITY": 0.01293084, "INCLINATION": 98.9708, "RA_OF_ASC_NODE": 321.2541, "ARG_OF_PERICENTER": 349.0353, "MEAN_ANOMALY": 10.8048, "EPHEMERIS_TYPE": 0, "CLASSIFICATION_TYPE": "U", "NORAD_CAT_ID": 35223, "ELEMENT_SET_NO": 999, "REV_AT_EPOCH": 93777, "BSTAR": 0.0016723631, "MEAN_MOTION_DOT": 0.00018249, "MEAN_MOTION_DDOT": 0}, "tle": {"line1": "1 35223U 99025DQF 25339.69653696  .00018249  00000+0  16724-2 0  9997", "line2": "2 35223  98.9708 321.2541 0129308 349.0353  10.8048 14.88764155937779"}}, "geometry": {"type": "Point", "coordinates": [139.6417187020307, -18.465635237837883]}}, {"type": "Feature", "properties": {"norad_id": 35229, "name": "FENGYUN 1C DEB", "group": "fengyun-1c-debris", "lat": -3.569278272845488, "lon": -120.71613310986054, "alt_km": 673.817105363144, "timestamp": "2025-12-06T22:38:43.015937+00:00", "meta": {"OBJECT_NAME": "FENGYUN 1C DEB", "OBJECT_ID": "1999-025DQM", "EPOCH": "2025-12-02T10:53:02.570208", "MEAN_MOTION": 14.59759705, "ECCENTRICITY": 0.0047395, "INCLINATION": 98.4598, "RA_OF_ASC_NODE": 55.2366, "ARG_OF_PERICENTER": 244.9664, "MEAN_ANOMALY": 114.661, "EPHEMERIS_TYPE": 0, "CLASSIFICATION_TYPE": "U", "NORAD_CAT_ID": 35229, "ELEMENT_SET_NO": 999, "REV_AT_EPOCH": 64356, "BSTAR": 0.0066057982, "MEAN_MOTION_DOT": 0.00032123, "MEAN_MOTION_DDOT": 0}, "tle": {"line1": "1 35229U 99025DQM 25336.45350197  .00032123  00000+0  66058-2 0  9996", "line2": "2 35229  98.4598  55.2366 0047395 244.9664 114.6610 14.59759705643561"}}, "geometry": {"type": "Point", "coordinates": [-120.71613310986054, -3.569278272845488]}}, {"type": "Feature", "properties": {"norad_id": 35231, "name": "FENGYUN 1C DEB", "group": "fengyun-1c-debris", "lat": 28.552597447173206, "lon": 19.452039666729846, "alt_km": 834.0321188905618, "timestamp": "2025-12-06T22:38:43.015947+00:00", "meta": {"OBJECT_NAME": "FENGYUN 1C DEB", "OBJECT_ID": "1999-025DQP", "EPOCH": "2025-12-05T22:44:31.964352", "MEAN_MOTION": 14.14527266, "ECCENTRICITY": 0.00379956, "INCLINATION": 98.7215, "RA_OF_ASC_NODE": 23.2708, "ARG_OF_PERICENTER": 103.9705, "MEAN_ANOMALY": 256.5698, "EPHEMERIS_TYPE": 0, "CLASSIFICATION_TYPE": "U", "NORAD_CAT_ID": 35231, "ELEMENT_SET_NO": 999, "REV_AT_EPOCH": 91406, "BSTAR": 5.5093743e-05, "MEAN_MOTION_DOT": 6.4e-07, "MEAN_MOTION_DDOT": 0}, "tle": {"line1": "1 35231U 99025DQP 25339.94759218  .00000064  00000+0  55094-4 0  9992", "line2": "2 35231  98.7215  23.2708 0037995 103.9705 256.5698 14.14527266914067"}}, "geometry": {"type": "Point", "coordinates": [19.452039666729846, 28.552597447173206]}}, {"type": "Feature", "properties": {"norad_id": 35233, "name": "FENGYUN 1C DEB", "group": "fengyun-1c-debris", "lat": -73.27618622676071, "lon": -131.00661643312088, "alt_km": 733.1407892642364, "timestamp": "2025-12-06T22:38:43.015957+00:00", "meta": {"OBJECT_NAME": "FENGYUN 1C DEB", "OBJECT_ID": "1999-025DQR", "EPOCH": "2025-11-29T12:57:02.668608", "MEAN_MOTION": 14.41620526, "ECCENTRICITY": 0.00411297, "INCLINATION": 98.7712, "RA_OF_ASC_NODE": 72.3131, "ARG_OF_PERICENTER": 300.6155, "MEAN_ANOMALY": 71.0123, "EPHEMERIS_TYPE": 0, "CLASSIFICATION_TYPE": "U", "NORAD_CAT_ID": 35233, "ELEMENT_SET_NO": 999, "REV_AT_EPOCH": 90986, "BSTAR": 0.0016467683, "MEAN_MOTION_DOT": 5.371e-05, "MEAN_MOTION_DDOT": 0}, "tle": {"line1": "1 35233U 99025DQR 25333.53961422  .00005371  00000+0  16468-2 0  9991", "line2": "2 35233  98.7712  72.3131 0041129 300.6155  71.0123 14.41620526909863"}}, "geometry": {"type": "Point", "coordinates": [-131.00661643312088, -73.27618622676071]}}, {"type": "Feature", "properties": {"norad_id": 35234, "name": "FENGYUN 1C DEB", "group": "fengyun-1c-debris", "lat": -64.72361648153424, "lon": 171.5032684038738, "alt_km": 624.8930901752601, "timestamp": "2025-12-06T22:38:43.015967+00:00", "meta": {"OBJECT_NAME": "FENGYUN 1C DEB", "OBJECT_ID": "1999-025DQS", "EPOCH": "2025-12-06T08:24:33.349536", "MEAN_MOTION": 14.65495399, "ECCENTRICITY": 0.00997141, "INCLINATION": 98.0683, "RA_OF_ASC_NODE": 8.403, "ARG_OF_PERICENTER": 282.8813, "MEAN_ANOMALY": 76.1266, "EPHEMERIS_TYPE": 0, "CLASSIFICATION_TYPE": "U", "NORAD_CAT_ID": 35234, "ELEMENT_SET_NO": 999, "REV_AT_EPOCH": 94262, "BSTAR": 0.0010918382, "MEAN_MOTION_DOT": 6.316e-05, "MEAN_MOTION_DDOT": 0}, "tle": {"line1": "1 35234U 99025DQS 25340.35038599  .00006316  00000+0  10918-2 0  9994", "line2": "2 35234  98.0683   8.4030 0099714 282.8813  76.1266 14.65495399942626"}}, "geometry": {"type": "Point", "coordinates": [171.5032684038738, -64.72361648153424]}}, {"type": "Feature", "properties": {"norad_id": 35239, "name": "FENGYUN 1C DEB", "group": "fengyun-1c-debris", "lat": 56.105386931615094, "lon": -24.10123443382853, "alt_km": 1014.4648025980341, "timestamp": "2025-12-06T22:38:43.015977+00:00", "meta": {"OBJECT_NAME": "FENGYUN 1C DEB", "OBJECT_ID": "1999-025DQX", "EPOCH": "2025-12-02T16:20:55.653216", "MEAN_MOTION": 13.69187111, "ECCENTRICITY": 0.02297744, "INCLINATION": 99.2648, "RA_OF_ASC_NODE": 137.7373, "ARG_OF_PERICENTER": 36.5764, "MEAN_ANOMALY": 325.0829, "EPHEMERIS_TYPE": 0, "CLASSIFICATION_TYPE": "U", "NORAD_CAT_ID": 35239, "ELEMENT_SET_NO": 999, "REV_AT_EPOCH": 57993, "BSTAR": 0.00086467038, "MEAN_MOTION_DOT": 8.6e-06, "MEAN_MOTION_DDOT": 0}, "tle": {"line1": "1 35239U 99025DQX 25336.68119969  .00000860  00000+0  86467-3 0  9992", "line2": "2 35239  99.2648 137.7373 0229774  36.5764 325.0829 13.69187111579935"}}, "geometry": {"type": "Point", "coordinates": [-24.10123443382853, 56.105386931615094]}}, {"type": "Feature", "properties": {"norad_id": 35240, "name": "FENGYUN 1C DEB", "group": "fengyun-1c-debris", "lat": -79.28764746091073, "lon": 62.45174914548575, "alt_km": 825.0696833426555, "timestamp": "2025-12-06T22:38:43.015987+00:00", "meta": {"OBJECT_NAME": "FENGYUN 1C DEB", "OBJECT_ID": "1999-025DQY", "EPOCH": "2025-12-05T08:17:17.456352", "MEAN_MOTION": 14.23206509, "ECCENTRICITY": 0.00457282, "INCLINATION": 99.3496, "RA_OF_ASC_NODE": 301.3175, "ARG_OF_PERICENTER": 173.2182, "MEAN_ANOMALY": 186.9623, "EPHEMERIS_TYPE": 0, "CLASSIFICATION_TYPE": "U", "NORAD_CAT_ID": 35240, "ELEMENT_SET_NO": 999, "REV_AT_EPOCH": 93059, "BSTAR": 0.0034054275, "MEAN_MOTION_DOT": 7.742e-05, "MEAN_MOTION_DDOT": 0}, "tle": {"line1": "1 35240U 99025DQY 25339.34534093  .00007742  00000+0  34054-2 0  9999", "line2": "2 35240  99.3496 301.3175 0045728 173.2182 186.9623 14.23206509930599"}}, "geometry": {"type": "Point", "coordinates": [62.45174914548575, -79.28764746091073]}}]}